start=new Date('2021-10-18T00:00:00.000Z').valueOf();
sats=[{"RA_OF_ASC_NODE":"234.7878","OBJECT_TYPE":"PAYLOAD","MEAN_MOTION_DDOT":"0.0000000000000","REV_AT_EPOCH":"3503","ELEMENT_SET_NO":"999","RCS_SIZE":"LARGE","PERIOD":"95.593","CENTER_NAME":"EARTH","TLE_LINE2":"2 47796  53.0567 234.7878 0001524  69.1332 290.9820 15.06386542 35037","SITE":"AFETR","REF_FRAME":"TEME","TIME_SYSTEM":"UTC","BSTAR":"0.00000223760000","TLE_LINE1":"1 47796U 21018K   21290.12480561 -.00000248  00000-0  22376-5 0  9996","SEMIMAJOR_AXIS":"6925.390","CLASSIFICATION_TYPE":"U","INCLINATION":"53.0567","LAUNCH_DATE":"2021-03-11","COUNTRY_CODE":"US","OBJECT_NAME":"STARLINK-2373","MEAN_MOTION":"15.06386542","GP_ID":"187445062","PERIAPSIS":"546.199","NORAD_CAT_ID":"47796","MEAN_ELEMENT_THEORY":"SGP4","APOAPSIS":"548.310","EPOCH":"2021-10-17T02:59:43.204704","ECCENTRICITY":"0.00015240","OBJECT_ID":"2021-018K","EPHEMERIS_TYPE":"0","MEAN_ANOMALY":"290.9820","MEAN_MOTION_DOT":"-0.00000248","DECAY_DATE":null,"FILE":"3168566","ARG_OF_PERICENTER":"69.1332"},{"APOAPSIS":"548.289","ECCENTRICITY":"0.00014550","EPOCH":"2021-10-17T07:03:15.269472","OBJECT_ID":"2021-018L","EPHEMERIS_TYPE":"0","MEAN_ANOMALY":"286.7602","MEAN_MOTION_DOT":"0.00001249","DECAY_DATE":null,"ARG_OF_PERICENTER":"73.3546","FILE":"3168566","MEAN_MOTION":"15.06377821","GP_ID":"187445812","NORAD_CAT_ID":"47797","PERIAPSIS":"546.274","MEAN_ELEMENT_THEORY":"SGP4","LAUNCH_DATE":"2021-03-11","COUNTRY_CODE":"US","OBJECT_NAME":"STARLINK-2377","CLASSIFICATION_TYPE":"U","INCLINATION":"53.0548","SEMIMAJOR_AXIS":"6925.417","CENTER_NAME":"EARTH","PERIOD":"95.594","TLE_LINE2":"2 47797  53.0548 259.0169 0001455  73.3546 286.7602 15.06377821 34701","SITE":"AFETR","REF_FRAME":"TEME","TIME_SYSTEM":"UTC","BSTAR":"0.00010282000000","TLE_LINE1":"1 47797U 21018L   21290.29392673  .00001249  00000-0  10282-3 0  9993","ELEMENT_SET_NO":"999","RCS_SIZE":"MEDIUM","RA_OF_ASC_NODE":"259.0169","OBJECT_TYPE":"PAYLOAD","MEAN_MOTION_DDOT":"0.0000000000000","REV_AT_EPOCH":"3470"},{"SEMIMAJOR_AXIS":"6925.359","TIME_SYSTEM":"UTC","REF_FRAME":"TEME","TLE_LINE1":"1 47798U 21018M   21290.26856831  .00003431  00000-0  24911-3 0  9991","BSTAR":"0.00024911000000","TLE_LINE2":"2 47798  53.0544 234.1340 0001429  73.9463 286.1683 15.06396624 35052","PERIOD":"95.592","CENTER_NAME":"EARTH","SITE":"AFETR","ELEMENT_SET_NO":"999","RCS_SIZE":"LARGE","MEAN_MOTION_DDOT":"0.0000000000000","REV_AT_EPOCH":"3505","OBJECT_TYPE":"PAYLOAD","RA_OF_ASC_NODE":"234.1340","MEAN_MOTION_DOT":"0.00003431","MEAN_ANOMALY":"286.1683","EPHEMERIS_TYPE":"0","ARG_OF_PERICENTER":"73.9463","FILE":"3168566","DECAY_DATE":null,"EPOCH":"2021-10-17T06:26:44.301984","ECCENTRICITY":"0.00014290","APOAPSIS":"548.214","OBJECT_ID":"2021-018M","GP_ID":"187444560","PERIAPSIS":"546.234","NORAD_CAT_ID":"47798","MEAN_ELEMENT_THEORY":"SGP4","MEAN_MOTION":"15.06396624","OBJECT_NAME":"STARLINK-2379","COUNTRY_CODE":"US","LAUNCH_DATE":"2021-03-11","CLASSIFICATION_TYPE":"U","INCLINATION":"53.0544"},{"MEAN_MOTION_DOT":"0.00001744","EPHEMERIS_TYPE":"0","MEAN_ANOMALY":"290.1314","FILE":"3168566","ARG_OF_PERICENTER":"69.9823","DECAY_DATE":null,"EPOCH":"2021-10-17T06:21:25.586208","ECCENTRICITY":"0.00013780","APOAPSIS":"548.188","OBJECT_ID":"2021-018N","PERIAPSIS":"546.280","GP_ID":"187444810","NORAD_CAT_ID":"47799","MEAN_ELEMENT_THEORY":"SGP4","MEAN_MOTION":"15.06393369","OBJECT_NAME":"STARLINK-2380","COUNTRY_CODE":"US","LAUNCH_DATE":"2021-03-11","CLASSIFICATION_TYPE":"U","INCLINATION":"53.0570","SEMIMAJOR_AXIS":"6925.369","TIME_SYSTEM":"UTC","REF_FRAME":"TEME","TLE_LINE1":"1 47799U 21018N   21290.26487947  .00001744  00000-0  13599-3 0  9995","BSTAR":"0.00013599000000","TLE_LINE2":"2 47799  53.0570 234.1623 0001378  69.9823 290.1314 15.06393369 35042","CENTER_NAME":"EARTH","PERIOD":"95.593","SITE":"AFETR","ELEMENT_SET_NO":"999","RCS_SIZE":"LARGE","MEAN_MOTION_DDOT":"0.0000000000000","REV_AT_EPOCH":"3504","OBJECT_TYPE":"PAYLOAD","RA_OF_ASC_NODE":"234.1623"},{"RCS_SIZE":"LARGE","ELEMENT_SET_NO":"999","OBJECT_TYPE":"PAYLOAD","RA_OF_ASC_NODE":"234.0560","REV_AT_EPOCH":"3505","MEAN_MOTION_DDOT":"0.0000000000000","SEMIMAJOR_AXIS":"6925.356","SITE":"AFETR","PERIOD":"95.592","CENTER_NAME":"EARTH","TLE_LINE2":"2 47800  53.0557 234.0560 0001427  64.2847 295.8289 15.06397622 35058","BSTAR":"0.00027767000000","TLE_LINE1":"1 47800U 21018P   21290.28699478  .00003857  00000-0  27767-3 0  9993","REF_FRAME":"TEME","TIME_SYSTEM":"UTC","LAUNCH_DATE":"2021-03-11","COUNTRY_CODE":"US","OBJECT_NAME":"STARLINK-2381","INCLINATION":"53.0557","CLASSIFICATION_TYPE":"U","OBJECT_ID":"2021-018P","APOAPSIS":"548.209","EPOCH":"2021-10-17T06:53:16.348992","ECCENTRICITY":"0.00014270","DECAY_DATE":null,"FILE":"3168566","ARG_OF_PERICENTER":"64.2847","MEAN_ANOMALY":"295.8289","EPHEMERIS_TYPE":"0","MEAN_MOTION_DOT":"0.00003857","MEAN_MOTION":"15.06397622","NORAD_CAT_ID":"47800","GP_ID":"187445562","PERIAPSIS":"546.233","MEAN_ELEMENT_THEORY":"SGP4"},{"CLASSIFICATION_TYPE":"U","INCLINATION":"53.0555","LAUNCH_DATE":"2021-03-11","COUNTRY_CODE":"US","OBJECT_NAME":"STARLINK-2382","MEAN_MOTION":"15.06382525","PERIAPSIS":"546.141","GP_ID":"187445313","NORAD_CAT_ID":"47801","MEAN_ELEMENT_THEORY":"SGP4","APOAPSIS":"548.393","EPOCH":"2021-10-17T05:50:13.971264","ECCENTRICITY":"0.00016260","OBJECT_ID":"2021-018Q","EPHEMERIS_TYPE":"0","MEAN_ANOMALY":"302.2845","MEAN_MOTION_DOT":"0.00001598","DECAY_DATE":null,"FILE":"3168566","ARG_OF_PERICENTER":"57.8302","RA_OF_ASC_NODE":"239.2483","OBJECT_TYPE":"PAYLOAD","MEAN_MOTION_DDOT":"0.0000000000000","REV_AT_EPOCH":"3498","ELEMENT_SET_NO":"999","RCS_SIZE":"LARGE","PERIOD":"95.593","CENTER_NAME":"EARTH","TLE_LINE2":"2 47801  53.0555 239.2483 0001626  57.8302 302.2845 15.06382525 34981","SITE":"AFETR","REF_FRAME":"TEME","TIME_SYSTEM":"UTC","BSTAR":"0.00012618000000","TLE_LINE1":"1 47801U 21018Q   21290.24321726  .00001598  00000-0  12618-3 0  9997","SEMIMAJOR_AXIS":"6925.402"},{"TLE_LINE1":"1 47802U 21018R   21290.30130210  .00001387  00000-0  11211-3 0  9995","BSTAR":"0.00011211000000","TIME_SYSTEM":"UTC","REF_FRAME":"TEME","SITE":"AFETR","TLE_LINE2":"2 47802  53.0557 259.0606 0005560  33.4821 326.6518 15.06378234 34718","PERIOD":"95.594","CENTER_NAME":"EARTH","SEMIMAJOR_AXIS":"6925.415","REV_AT_EPOCH":"3471","MEAN_MOTION_DDOT":"0.0000000000000","RA_OF_ASC_NODE":"259.0606","OBJECT_TYPE":"PAYLOAD","RCS_SIZE":"LARGE","ELEMENT_SET_NO":"999","NORAD_CAT_ID":"47802","GP_ID":"187444061","PERIAPSIS":"543.430","MEAN_ELEMENT_THEORY":"SGP4","MEAN_MOTION":"15.06378234","ARG_OF_PERICENTER":"33.4821","FILE":"3168566","DECAY_DATE":null,"MEAN_MOTION_DOT":"0.00001387","EPHEMERIS_TYPE":"0","MEAN_ANOMALY":"326.6518","OBJECT_ID":"2021-018R","ECCENTRICITY":"0.00055600","EPOCH":"2021-10-17T07:13:52.501440","APOAPSIS":"551.131","INCLINATION":"53.0557","CLASSIFICATION_TYPE":"U","OBJECT_NAME":"STARLINK-2383","COUNTRY_CODE":"US","LAUNCH_DATE":"2021-03-11"},{"RCS_SIZE":"LARGE","ELEMENT_SET_NO":"999","REV_AT_EPOCH":"3504","MEAN_MOTION_DDOT":"0.0000000000000","OBJECT_TYPE":"PAYLOAD","RA_OF_ASC_NODE":"234.3071","SEMIMAJOR_AXIS":"6925.389","BSTAR":"0.00000507650000","TLE_LINE1":"1 47803U 21018S   21290.23170525 -.00000206  00000-0  50765-5 0  9990","REF_FRAME":"TEME","TIME_SYSTEM":"UTC","SITE":"AFETR","PERIOD":"95.593","CENTER_NAME":"EARTH","TLE_LINE2":"2 47803  53.0564 234.3071 0001491  71.9597 288.1554 15.06386738 35042","COUNTRY_CODE":"US","OBJECT_NAME":"STARLINK-2384","LAUNCH_DATE":"2021-03-11","INCLINATION":"53.0564","CLASSIFICATION_TYPE":"U","DECAY_DATE":null,"ARG_OF_PERICENTER":"71.9597","FILE":"3168566","MEAN_ANOMALY":"288.1554","EPHEMERIS_TYPE":"0","MEAN_MOTION_DOT":"-0.00000206","OBJECT_ID":"2021-018S","APOAPSIS":"548.287","ECCENTRICITY":"0.00014910","EPOCH":"2021-10-17T05:33:39.333600","NORAD_CAT_ID":"47803","GP_ID":"187444311","PERIAPSIS":"546.222","MEAN_ELEMENT_THEORY":"SGP4","MEAN_MOTION":"15.06386738"},{"REF_FRAME":"TEME","TIME_SYSTEM":"UTC","BSTAR":"0.00012172000000","TLE_LINE1":"1 47804U 21018T   21290.24645782  .00001531  00000-0  12172-3 0  9993","PERIOD":"95.593","CENTER_NAME":"EARTH","TLE_LINE2":"2 47804  53.0555 234.2322 0001631  66.4809 293.6351 15.06388458 35049","SITE":"AFETR","SEMIMAJOR_AXIS":"6925.384","MEAN_MOTION_DDOT":"0.0000000000000","REV_AT_EPOCH":"3504","OBJECT_TYPE":"PAYLOAD","RA_OF_ASC_NODE":"234.2322","ELEMENT_SET_NO":"999","RCS_SIZE":"MEDIUM","GP_ID":"187445063","NORAD_CAT_ID":"47804","PERIAPSIS":"546.119","MEAN_ELEMENT_THEORY":"SGP4","MEAN_MOTION":"15.06388458","EPHEMERIS_TYPE":"0","MEAN_ANOMALY":"293.6351","MEAN_MOTION_DOT":"0.00001531","DECAY_DATE":null,"ARG_OF_PERICENTER":"66.4809","FILE":"3168566","APOAPSIS":"548.378","EPOCH":"2021-10-17T05:54:53.955648","ECCENTRICITY":"0.00016310","OBJECT_ID":"2021-018T","CLASSIFICATION_TYPE":"U","INCLINATION":"53.0555","COUNTRY_CODE":"US","OBJECT_NAME":"STARLINK-2385","LAUNCH_DATE":"2021-03-11"},{"GP_ID":"187445813","PERIAPSIS":"546.288","NORAD_CAT_ID":"47805","MEAN_ELEMENT_THEORY":"SGP4","MEAN_MOTION":"15.06392194","MEAN_ANOMALY":"292.0713","EPHEMERIS_TYPE":"0","MEAN_MOTION_DOT":"0.00002381","DECAY_DATE":null,"ARG_OF_PERICENTER":"68.0421","FILE":"3168566","APOAPSIS":"548.187","ECCENTRICITY":"0.00013710","EPOCH":"2021-10-17T06:09:27.469152","OBJECT_ID":"2021-018U","CLASSIFICATION_TYPE":"U","INCLINATION":"53.0550","COUNTRY_CODE":"US","OBJECT_NAME":"STARLINK-2386","LAUNCH_DATE":"2021-03-11","REF_FRAME":"TEME","TIME_SYSTEM":"UTC","BSTAR":"0.00017870000000","TLE_LINE1":"1 47805U 21018U   21290.25656793  .00002381  00000-0  17870-3 0  9993","CENTER_NAME":"EARTH","PERIOD":"95.593","TLE_LINE2":"2 47805  53.0550 234.1844 0001371  68.0421 292.0713 15.06392194 35050","SITE":"AFETR","SEMIMAJOR_AXIS":"6925.372","MEAN_MOTION_DDOT":"0.0000000000000","REV_AT_EPOCH":"3505","OBJECT_TYPE":"PAYLOAD","RA_OF_ASC_NODE":"234.1844","ELEMENT_SET_NO":"999","RCS_SIZE":"MEDIUM"}];
